{"type": "FeatureCollection", "features": [{"type": "Feature", "id": "warning_gaul2_crop.5721", "geometry": {"type": "MultiPolygon", "coordinates": [[[[10.98740006, 18.01140022], [7.90117979, 17.93700028], [6.04144001, 17.90880013], [6.01609993, 18.08390045], [6.0794301, 18.49230003], [6.07310009, 18.69949913], [6.09421015, 18.78800011], [6.08788014, 18.82419968], [5.91267014, 19.1541996], [5.9000001, 19.29500008], [5.80500984, 19.35339928], [5.81934752, 19.44671566], [7.459372, 20.84132], [8.719858, 21.605986], [10.97270702, 22.92746236], [11.00220013, 20.12590027], [11.00640011, 18.40579987], [10.98740006, 18.01140022]]]]}, "geometry_name": "geom", "properties": {"asap0_id": 80, "asap2_id": 5721, "asap0_name": "Niger", "asap2_name": "Arlit", "w_crop": 99, "w_crop_na": "Insufficient Crop/Rangeland Area", "w_crop_de": "Unit not considered in the ASAP system", "w_crop_gr": 5, "date": "2026-08-21"}}, {"type": "Feature", "id": "warning_gaul2_crop.5742", "geometry": {"type": "MultiPolygon", "coordinates": [[[[12.12185, 23.48946], [13.39798, 23.21753], [13.48059, 23.18613], [13.6804, 23.07224], [14.18932, 22.64448], [14.99587, 23.00189], [15.19187, 21.98975], [15.19843, 21.49131], [15.28858, 21.43232], [15.62559, 20.96324], [15.54616, 20.88042], [15.5901, 20.77447], [15.74567, 20.62955], [15.86516, 20.46246], [15.99564, 20.34847], [15.75355, 19.94778], [15.74582, 19.91071], [15.5938, 18.73187], [15.55941983, 18.00624678], [15.31480026, 18.01549912], [13.01179981, 17.99329948], [12.07870007, 17.52659988], [11.59959984, 17.3696003], [11.12880039, 17.14430046], [10.98530006, 17.05979919], [10.98740006, 18.01140022], [11.00640011, 18.64920044], [10.98740006, 22.47179985], [10.97270702, 22.92746236], [11.9985, 23.512696], [12.12185, 23.48946]]]]}, "geometry_name": "geom", "properties": {"asap0_id": 80, "asap2_id": 5742, "asap0_name": "Niger", "asap2_name": "Bilma", "w_crop": 99, "w_crop_na": "Insufficient Crop/Rangeland Area", "w_crop_de": "Unit not considered in the ASAP system", "w_crop_gr": 5, "date": "2026-08-21"}}, {"type": "Feature", "id": "warning_gaul2_crop.5743", "geometry": {"type": "MultiPolygon", "coordinates": [[[[10.98740006, 18.01140022], [10.98530006, 17.05979919], [9.30918026, 15.95930004], [9.02632046, 15.87080002], [8.47535992, 15.59309959], [8.30858994, 15.54479981], [8.15660954, 15.55090046], [7.96450996, 15.50660038], [7.60142994, 15.56089973], [7.5528698, 15.55290031], [7.50432015, 15.5710001], [7.35444021, 15.31949997], [7.0230298, 15.4382], [6.72537994, 15.42819977], [6.58395004, 15.89890003], [6.64094019, 16.19269943], [6.42563009, 16.28319931], [6.34962988, 16.35160065], [6.1406498, 16.81839943], [6.04144001, 16.94510078], [5.60657978, 17.27099991], [5.22028017, 17.47220039], [5.14216995, 17.6352005], [5.09150982, 17.70159912], [4.88886023, 17.82029915], [4.87619019, 17.92090035], [4.7326498, 17.94910049], [4.72842979, 18.0034008], [4.81709003, 18.13010025], [4.81709003, 18.25079918], [4.76008987, 18.42790031], [4.78119993, 18.49230003], [4.84453011, 18.5788002], [4.86986017, 18.67939949], [4.24343, 18.67082983], [4.24295162, 19.13890174], [5.81934752, 19.44671566], [5.80500984, 19.35339928], [5.9000001, 19.29500008], [5.91267014, 19.1541996], [6.08788014, 18.82419968], [6.09421015, 18.78800011], [6.07310009, 18.69949913], [6.0794301, 18.49230003], [6.01609993, 18.08390045], [6.04144001, 17.90880013], [7.90117979, 17.93700028], [10.98740006, 18.01140022]]]]}, "geometry_name": "geom", "properties": {"asap0_id": 80, "asap2_id": 5743, "asap0_name": "Niger", "asap2_name": "Tchighozerine", "w_crop": 99, "w_crop_na": "Insufficient Crop/Rangeland Area", "w_crop_de": "Unit not considered in the ASAP system", "w_crop_gr": 5, "date": "2026-08-21"}}, {"type": "Feature", "id": "warning_gaul2_crop.5748", "geometry": {"type": "MultiPolygon", "coordinates": [[[[15.55941983, 18.00624678], [15.50555, 16.89787], [14.38476, 15.73155], [13.97018, 15.15653], [13.86221, 15.03134], [13.78968, 14.86321], [13.80996, 14.72172], [13.76873, 14.69197], [13.74557, 14.69834], [13.67731, 14.63656], [13.69602, 14.55112], [13.64094, 14.51372], [13.57207, 14.50568], [13.47883, 14.46007], [13.47964, 14.37963], [13.58589102, 13.92089599], [12.72259998, 13.78639984], [12.44820023, 13.77029991], [12.34469986, 14.01780033], [12.03649998, 14.03190041], [12.03020001, 14.42819977], [11.99849987, 14.42420006], [11.93099976, 14.45040035], [11.9119997, 14.52880001], [11.92459965, 14.57110024], [12.00279999, 14.60929966], [11.99429989, 17.49440002], [13.01179981, 17.99329948], [15.31480026, 18.01549912], [15.55941983, 18.00624678]]]]}, "geometry_name": "geom", "properties": {"asap0_id": 80, "asap2_id": 5748, "asap0_name": "Niger", "asap2_name": "N'guigmi", "w_crop": 99, "w_crop_na": "Insufficient Crop/Rangeland Area", "w_crop_de": "Unit not considered in the ASAP system", "w_crop_gr": 5, "date": "2026-08-21"}}, {"type": "Feature", "id": "warning_gaul2_crop.2505", "geometry": {"type": "MultiPolygon", "coordinates": [[[[0.51387, 15], [0.53776, 14.98095], [0.73028898, 14.94729996], [0.84005898, 14.88899994], [0.85272402, 14.86279964], [0.84005898, 14.78030014], [0.87805599, 14.74409962], [0.86116803, 14.70590019], [0.87383401, 14.65559959], [0.91816402, 14.62139988], [0.983603, 14.60130024], [1.05537999, 14.52680016], [1.13136995, 14.39599991], [1.20947003, 14.35179997], [1.31079996, 14.25319958], [1.41213, 14.2130003], [1.49444997, 14.13049984], [1.50501001, 14.03989983], [1.52400994, 14.00370026], [1.51556003, 13.96749973], [1.54299998, 13.88500023], [1.57677996, 13.86089993], [1.60211003, 13.79450035], [1.63165999, 13.78240013], [1.58099997, 13.7201004], [1.49022996, 13.67179966], [1.48811996, 13.62150002], [1.45222998, 13.62349987], [1.42901003, 13.58320046], [1.37413001, 13.60739994], [1.35723996, 13.59930039], [1.35723996, 13.57120037], [1.39523995, 13.52289963], [1.36991, 13.50080013], [1.30446994, 13.51080036], [1.33402002, 13.45650005], [1.30446994, 13.4282999], [1.32134998, 13.36999989], [1.28296987, 13.35220042], [1.24093, 13.39137], [1.13667, 13.41402], [1.08789, 13.46078], [1.01409, 13.48738001], [1.01480996, 13.53102016], [0.98996, 13.5764], [0.95858, 13.58058], [0.9071, 13.61865], [0.82719, 13.61865], [0.78164, 13.6427], [0.77844, 13.66428], [0.79692, 13.67727], [0.7726, 13.69205], [0.61902, 13.69906], [0.59973, 13.73041], [0.62558, 13.76529], [0.62048, 13.78663], [0.58942, 13.78756], [0.57817, 13.81298], [0.53044, 13.84068], [0.52077, 13.87392999], [0.47336, 13.91769], [0.4805, 13.96577], [0.45521, 13.94996], [0.45028, 13.97772], [0.39879, 14.02787], [0.38406, 14.0705], [0.39506, 14.08634], [0.36996, 14.10707], [0.35703, 14.1484], [0.391, 14.19016], [0.38689, 14.22196], [0.40376, 14.24966], [0.38594, 14.28867], [0.32293, 14.36201], [0.27541, 14.37839], [0.19201, 14.46064], [0.168, 14.52335], [0.2361, 14.74948], [0.20165, 14.84035], [0.23574, 14.88607], [0.22935, 14.98967], [0.40178, 14.9696], [0.51387, 15]]]]}, "geometry_name": "geom", "properties": {"asap0_id": 80, "asap2_id": 2505, "asap0_name": "Niger", "asap2_name": "Tera", "w_crop": 10, "w_crop_na": "No warning with exceptional conditions", "w_crop_de": "Season is active but no relevant negative anomalies are detected and at least 25% of the active area is affected by a positive anomaly for the indicator zNDVIc", "w_crop_gr": 0, "date": "2026-08-21"}}, {"type": "Feature", "id": "warning_gaul2_crop.5768", "geometry": {"type": "MultiPolygon", "coordinates": [[[[2.53937006, 13.875], [2.61114001, 13.82470036], [2.6407001, 13.73009968], [2.68713999, 13.66979981], [2.82435012, 13.65970039], [2.80324006, 13.59930039], [2.84967995, 13.54899979], [2.84123993, 13.4545002], [2.86234999, 13.40820026], [2.8327899, 13.33780003], [2.82856989, 13.25329971], [2.75679994, 13.27140045], [2.69136, 13.26539993], [2.65969992, 13.2493], [2.65969992, 13.2191], [2.58369994, 13.18290043], [2.50559998, 13.19699955], [2.47182012, 13.17080021], [2.46971011, 13.1164999], [2.53515005, 12.97560024], [2.69980001, 12.94750023], [2.69769001, 12.91129971], [2.62170005, 12.87909985], [2.58791995, 12.80060005], [2.63014007, 12.6658001], [2.62381005, 12.59939957], [2.56469989, 12.51490021], [2.50981998, 12.5934], [2.54570007, 12.64369965], [2.47814989, 12.68589973], [2.49925995, 12.73019981], [2.47814989, 12.79059982], [2.38737989, 12.88309956], [2.37050009, 12.97970009], [2.38527012, 13.02799988], [2.37261009, 13.05210018], [2.36416006, 13.26939964], [2.29661012, 13.32769966], [2.24172998, 13.34790039], [2.10029006, 13.44239998], [2.06651998, 13.43439961], [2.03907991, 13.4847002], [1.96519005, 13.50879955], [1.95464003, 13.54500008], [1.93141997, 13.56110001], [1.91664004, 13.55309963], [1.87442005, 13.43640041], [1.88708997, 13.36190033], [1.85965002, 13.32970047], [1.84908998, 13.36190033], [1.80475998, 13.3980999], [1.74565995, 13.48670006], [1.53455997, 13.54100037], [1.50712001, 13.56309986], [1.48389995, 13.61950016], [1.49022996, 13.67179966], [1.58099997, 13.7201004], [1.63165999, 13.78240013], [1.69499004, 13.74820042], [1.74776995, 13.77840042], [1.78787005, 13.84879971], [1.85754001, 13.88099957], [2.00741005, 13.86089993], [2.06229997, 13.8991003], [2.18262005, 13.83880043], [2.24172998, 13.85890007], [2.53937006, 13.875]]]]}, "geometry_name": "geom", "properties": {"asap0_id": 80, "asap2_id": 5768, "asap0_name": "Niger", "asap2_name": "Kollo", "w_crop": 12, "w_crop_na": "Warning level 1 with exceptional conditions", "w_crop_de": "At least 25% of the active area is affected by an anomaly for the indicator WSI and at least 25% of the active area is affected by a positive anomaly for the indicator zNDVIc", "w_crop_gr": 1, "date": "2026-08-21"}}, {"type": "Feature", "id": "warning_gaul2_crop.3147", "geometry": {"type": "MultiPolygon", "coordinates": [[[[1.85754001, 13.88099957], [1.78787005, 13.84879971], [1.74776995, 13.77840042], [1.69499004, 13.74820042], [1.60422003, 13.79249954], [1.57677996, 13.86089993], [1.54299998, 13.88500023], [1.48811996, 14.14050007], [1.41213, 14.2130003], [1.31079996, 14.25319958], [1.20947003, 14.35179997], [1.13136995, 14.39599991], [1.05537999, 14.52680016], [0.983603, 14.60130024], [0.91816402, 14.62139988], [0.87383401, 14.65559959], [0.86116803, 14.70590019], [0.87805599, 14.74409962], [0.84639102, 14.76420021], [0.83794802, 14.79240036], [0.85272402, 14.85070038], [0.84428102, 14.88490009], [0.73028898, 14.94729996], [0.70316, 14.94583], [0.71913, 14.95902], [0.97319, 14.97895], [1.31105, 15.25958], [1.51742801, 15.27925986], [1.49866998, 15.05389977], [1.50079, 14.7098999], [1.56200004, 14.64150047], [1.68233001, 14.42420006], [1.72031999, 14.22299957], [1.76253998, 14.10029984], [1.78154004, 14.07409954], [1.87231004, 14.04800034], [1.89130998, 13.91119957], [1.85754001, 13.88099957]]]]}, "geometry_name": "geom", "properties": {"asap0_id": 80, "asap2_id": 3147, "asap0_name": "Niger", "asap2_name": "Tillaberi", "w_crop": 10, "w_crop_na": "No warning with exceptional conditions", "w_crop_de": "Season is active but no relevant negative anomalies are detected and at least 25% of the active area is affected by a positive anomaly for the indicator zNDVIc", "w_crop_gr": 0, "date": "2026-08-21"}}, {"type": "Feature", "id": "warning_gaul2_crop.4346", "geometry": {"type": "MultiPolygon", "coordinates": [[[[1.48389995, 13.61950016], [1.50712001, 13.56309986], [1.53455997, 13.54100037], [1.74565995, 13.48670006], [1.80475998, 13.3980999], [1.84908998, 13.36190033], [1.85965002, 13.32970047], [1.88708997, 13.36190033], [1.87442005, 13.43640041], [1.91664004, 13.55309963], [1.93141997, 13.56110001], [1.95464003, 13.54500008], [1.96519005, 13.50879955], [2.03907991, 13.4847002], [2.06651998, 13.43439961], [2.10029006, 13.44239998], [2.24172998, 13.34790039], [2.29661012, 13.32769966], [2.35572004, 13.27740002], [2.36839008, 13.25930023], [2.37261009, 13.05210018], [2.38527012, 13.02799988], [2.37050009, 12.97970009], [2.38737989, 12.88309956], [2.47814989, 12.79059982], [2.49925995, 12.74230003], [2.47814989, 12.68589973], [2.54570007, 12.64369965], [2.51192999, 12.58129978], [2.56469989, 12.51490021], [2.61959004, 12.59539986], [2.64703012, 12.56919956], [2.64281011, 12.53100014], [2.67446995, 12.52900028], [2.68291998, 12.50889969], [2.70614004, 12.57330036], [2.72302008, 12.57129955], [2.7441299, 12.53499985], [2.7462399, 12.4605999], [2.84545994, 12.41230011], [2.826667, 12.408611], [2.83881741, 12.39532229], [2.78642001, 12.38573442], [2.76180911, 12.35147459], [2.73420582, 12.36344415], [2.69298409, 12.28155032], [2.66501439, 12.3064055], [2.59863214, 12.30255813], [2.58037244, 12.27831365], [2.54348662, 12.27330597], [2.52125742, 12.29480234], [2.50495194, 12.26628301], [2.47405091, 12.27336704], [2.46421877, 12.25309206], [2.44229491, 12.26487842], [2.37426379, 12.24228281], [2.39127789, 12.22810713], [2.37724742, 12.21393843], [2.39210728, 12.19320375], [2.39141612, 12.11254583], [2.46550806, 11.98018943], [2.44691596, 11.98426725], [2.43723978, 11.95309611], [2.40212904, 11.94798155], [2.39203817, 11.93035707], [2.40884015, 11.89852862], [2.06469, 12.35621], [2.08212, 12.39354], [2.10938, 12.38366], [2.15516, 12.41998], [2.2532, 12.41529], [2.27428, 12.42837], [2.26781, 12.47493], [2.22826, 12.52179], [2.22587, 12.58299], [2.19603, 12.62407], [2.1515, 12.64908], [2.16063, 12.68795], [2.11078, 12.70688], [2.10416, 12.73089], [2.08276, 12.72114], [1.97751, 12.73717], [1.94859, 12.69165], [1.92585, 12.69369], [1.86544, 12.60539], [1.57605, 12.63314], [1.11808, 12.99984], [0.9975, 12.99965], [0.99182, 13.37092], [1.05309, 13.36861], [1.11968, 13.33302], [1.1862, 13.32231], [1.21253, 13.3809], [1.24562, 13.33926], [1.32134998, 13.36999989], [1.30446994, 13.4282999], [1.33402002, 13.45650005], [1.30446994, 13.51080036], [1.36991, 13.50080013], [1.39523995, 13.52289963], [1.35723996, 13.57120037], [1.35723996, 13.59930039], [1.37413001, 13.60739994], [1.42901003, 13.58320046], [1.45222998, 13.62349987], [1.48389995, 13.61950016]]]]}, "geometry_name": "geom", "properties": {"asap0_id": 80, "asap2_id": 4346, "asap0_name": "Niger", "asap2_name": "Say", "w_crop": 10, "w_crop_na": "No warning with exceptional conditions", "w_crop_de": "Season is active but no relevant negative anomalies are detected and at least 25% of the active area is affected by a positive anomaly for the indicator zNDVIc", "w_crop_gr": 0, "date": "2026-08-21"}}, {"type": "Feature", "id": "warning_gaul2_crop.5744", "geometry": {"type": "MultiPolygon", "coordinates": [[[[13.63455, 13.71068], [13.33198782, 13.71459594], [13.33430712, 13.69823197], [13.30877348, 13.69693848], [13.29988528, 13.6657488], [13.24394886, 13.61678997], [13.26176298, 13.59625804], [13.25152357, 13.57986409], [13.22708242, 13.58894612], [13.2400587, 13.56476368], [13.19972093, 13.55256149], [13.21264002, 13.53318286], [13.19530927, 13.52651635], [13.19920134, 13.51376719], [13.18198285, 13.53743119], [13.14150509, 13.51775605], [13.14802842, 13.55005302], [13.12409788, 13.54118544], [13.12646431, 13.52181482], [13.10363086, 13.53952499], [13.09092555, 13.51685211], [13.06295237, 13.52681344], [13.06473748, 13.54984383], [13.04166518, 13.52887287], [13.02338608, 13.53672943], [13.00581644, 13.51081154], [12.95745456, 13.52167758], [12.95899096, 13.50040433], [12.94505907, 13.50806548], [12.91898196, 13.48780723], [12.87280981, 13.50207302], [12.87449743, 13.4724304], [12.84358653, 13.47770624], [12.85699021, 13.4739653], [12.85802774, 13.44137256], [12.837522, 13.45011134], [12.81235347, 13.43153882], [12.82915833, 13.4207699], [12.82788629, 13.4038634], [12.82270484, 13.41336708], [12.78450322, 13.3987519], [12.79255523, 13.37771757], [12.76666682, 13.39156992], [12.73453336, 13.34176448], [12.74113656, 13.32729499], [12.70997519, 13.32377754], [12.71867287, 13.30830078], [12.68297079, 13.32099556], [12.69248389, 13.30260891], [12.67754538, 13.27662194], [12.64445602, 13.2889402], [12.64458001, 13.30646582], [12.6252092, 13.27908705], [12.57906814, 13.28489265], [12.59129487, 13.27781301], [12.59036452, 13.26646537], [12.57760169, 13.27563783], [12.58107413, 13.25679497], [12.56576922, 13.24888045], [12.55174846, 13.26259492], [12.57038821, 13.23177381], [12.55178121, 13.22746603], [12.5498812, 13.20414177], [12.53253543, 13.21346164], [12.54285444, 13.19683656], [12.56005281, 13.19930985], [12.55816918, 13.16217776], [12.53938398, 13.14213887], [12.52957206, 13.15554639], [12.50203371, 13.14426689], [12.48916082, 13.12461161], [12.49646734, 13.08687348], [12.47879332, 13.08666383], [12.47429619, 13.0619768], [12.40623128, 13.08339319], [12.36984544, 13.07586653], [12.36769646, 13.09262855], [12.3330429, 13.07298245], [12.30619657, 13.09811006], [12.16320038, 13.44639969], [12.13360024, 13.71000004], [12.44820023, 13.77029991], [12.72259998, 13.78639984], [13.58589102, 13.92089599], [13.63455, 13.71068]]]]}, "geometry_name": "geom", "properties": {"asap0_id": 80, "asap2_id": 5744, "asap0_name": "Niger", "asap2_name": "Diffa", "w_crop": 6, "w_crop_na": "Warning level 3", "w_crop_de": "At least 25% of the active area is affected by an anomaly for the indicator zNDVIc and at least 25% by WSI", "w_crop_gr": 3, "date": "2026-08-21"}}, {"type": "Feature", "id": "warning_gaul2_crop.5724", "geometry": {"type": "MultiPolygon", "coordinates": [[[[8.07217026, 14.44839954], [8.05949974, 14.30150032], [7.95394993, 14.03789997], [8.07639027, 14.06410027], [8.04049969, 14.00979996], [8.08905983, 14.0078001], [8.05739021, 13.9715004], [8.05949974, 13.92930031], [7.99617004, 13.85890007], [7.85052013, 13.76229954], [7.74074984, 13.7361002], [7.67742014, 13.75220013], [7.54231978, 13.70189953], [7.44733, 13.70600033], [7.33545017, 13.84080029], [7.32489014, 13.875], [7.24889994, 13.93929958], [7.25311995, 14.09829998], [7.22778988, 14.11439991], [7.22567987, 14.16670036], [7.18978977, 14.21500015], [7.20456982, 14.28139973], [7.17713022, 14.2954998], [7.16657019, 14.3980999], [7.22145987, 14.51070023], [7.35444021, 14.51270008], [7.36921978, 14.48659992], [7.44944, 14.48460007], [7.51065016, 14.40209961], [7.6985302, 14.34370041], [7.77874994, 14.42020035], [7.84418011, 14.42420006], [7.95183992, 14.51679993], [7.99195004, 14.51480007], [8.01095009, 14.45440006], [8.07217026, 14.44839954]]]]}, "geometry_name": "geom", "properties": {"asap0_id": 80, "asap2_id": 5724, "asap0_name": "Niger", "asap2_name": "Mayahi", "w_crop": 12, "w_crop_na": "Warning level 1 with exceptional conditions", "w_crop_de": "At least 25% of the active area is affected by an anomaly for the indicator WSI and at least 25% of the active area is affected by a positive anomaly for the indicator zNDVIc", "w_crop_gr": 1, "date": "2026-08-21"}}, {"type": "Feature", "id": "warning_gaul2_crop.5727", "geometry": {"type": "MultiPolygon", "coordinates": [[[[4.44555998, 14.11240006], [4.46456003, 14.00570011], [4.50889015, 13.95750046], [4.57221985, 13.8448], [4.59700925, 13.7307043], [4.4637941, 13.67765098], [4.23135911, 13.47282894], [4.13381788, 13.47246834], [4.13435877, 13.16542083], [4.09847947, 12.98548342], [3.93476888, 12.74658855], [3.83892525, 12.67194998], [3.74471998, 12.7723999], [3.71516991, 12.84889984], [3.6222899, 12.94139957], [3.7130599, 13.10039997], [3.71516991, 13.25529957], [3.76583004, 13.25730038], [3.76372004, 13.29150009], [3.73205996, 13.29150009], [3.73205996, 13.30959988], [3.7890501, 13.31159973], [3.7890501, 13.32369995], [3.86294007, 13.35589981], [3.8734901, 13.3739996], [3.82493997, 13.41829968], [3.82493997, 13.47259998], [3.87138009, 13.47259998], [3.90515995, 13.54100037], [3.72783995, 13.55309963], [3.72571993, 13.57120037], [3.74895001, 13.57120037], [3.77005005, 13.59930039], [3.77005005, 13.74020004], [3.74682999, 13.73820019], [3.66451001, 13.95950031], [3.73838997, 14.03190041], [3.76583004, 14.18879986], [3.8734901, 14.33370018], [3.95160008, 14.38799954], [4.16480017, 14.43830013], [4.16480017, 14.4946003], [4.25134993, 14.52880001], [4.25556994, 14.63549995], [4.34212017, 14.60529995], [4.43288994, 14.43830013], [4.41177988, 14.2894001], [4.44555998, 14.11240006]]]]}, "geometry_name": "geom", "properties": {"asap0_id": 80, "asap2_id": 5727, "asap0_name": "Niger", "asap2_name": "Dogondoutchi", "w_crop": 14, "w_crop_na": "Warning level 1+ with exceptional conditions", "w_crop_de": "At least 25% of the active area is affected by an anomaly for the indicator WSI and at least 25% by SPI 3 and at least 25% of the active area is affected by a positive anomaly for the indicator zNDVIc", "w_crop_gr": 1, "date": "2026-08-21"}}, {"type": "Feature", "id": "warning_gaul2_crop.5746", "geometry": {"type": "MultiPolygon", "coordinates": [[[[12.44820023, 13.77029991], [12.13360024, 13.71000004], [12.16320038, 13.44639969], [12.30619657, 13.09811006], [12.27783779, 13.08951908], [12.28217505, 13.07903627], [12.26448203, 13.11424501], [12.23315016, 13.10671092], [12.20033883, 13.12884446], [12.17628797, 13.12451418], [12.18682797, 13.10947707], [12.10424, 13.09346], [11.88463, 13.24652], [11.69559, 13.28701], [11.52219, 13.35306], [11.17462, 13.37604], [10.66923042, 13.35690129], [10.61369991, 13.51889992], [10.82269955, 13.71399975], [10.83539963, 13.83469963], [10.99790001, 13.97560024], [11.08240032, 14.07209969], [11.20899963, 14.1566], [11.25549984, 14.1868], [11.33780003, 14.15260029], [11.54889965, 14.18879986], [11.79800034, 14.37189961], [11.87819958, 14.37189961], [11.99849987, 14.42420006], [12.03020001, 14.42819977], [12.03649998, 14.03190041], [12.34469986, 14.01780033], [12.44820023, 13.77029991]]]]}, "geometry_name": "geom", "properties": {"asap0_id": 80, "asap2_id": 5746, "asap0_name": "Niger", "asap2_name": "Maine-soroa", "w_crop": 6, "w_crop_na": "Warning level 3", "w_crop_de": "At least 25% of the active area is affected by an anomaly for the indicator zNDVIc and at least 25% by WSI", "w_crop_gr": 3, "date": "2026-08-21"}}, {"type": "Feature", "id": "warning_gaul2_crop.5747", "geometry": {"type": "MultiPolygon", "coordinates": [[[[7.35444021, 15.31949997], [7.42199993, 15.28730011], [7.4114399, 15.14449978], [7.49166012, 15.00570011], [7.51488018, 14.81649971], [7.5528698, 14.77229977], [7.53809977, 14.7098999], [7.59719992, 14.69779968], [7.71541977, 14.63749981], [7.70697022, 14.46850014], [7.77874994, 14.42020035], [7.6985302, 14.34370041], [7.51065016, 14.40209961], [7.44944, 14.48460007], [7.36921978, 14.48659992], [7.35444021, 14.51270008], [7.22145987, 14.51070023], [7.22145987, 14.49059963], [7.19189978, 14.46450043], [7.16657019, 14.3980999], [7.17713022, 14.2954998], [7.20456982, 14.28139973], [7.18978977, 14.21500015], [7.22567987, 14.16670036], [7.22778988, 14.11439991], [7.25311995, 14.09829998], [7.24889994, 13.93929958], [7.32489014, 13.875], [7.33545017, 13.84080029], [7.40932989, 13.75829983], [7.21722984, 13.76229954], [7.13491011, 13.80249977], [7.07579994, 13.80459976], [7.04413986, 13.85890007], [6.89636993, 13.90719986], [6.74438, 13.89109993], [6.61139011, 13.80860043], [6.47207022, 13.84879971], [6.41718006, 13.80459976], [6.36229992, 13.84679985], [6.33063984, 13.85079956], [6.32851982, 13.92730045], [6.41718006, 14.0078001], [6.4657402, 14.01379967], [6.52483988, 14.04599953], [6.52061987, 14.1324997], [6.54172993, 14.14249992], [6.53750992, 14.27330017], [6.49739981, 14.30550003], [6.47418022, 14.47649956], [6.55861998, 14.82859993], [6.55650997, 15.00570011], [6.63039017, 15.2592001], [6.72537994, 15.42819977], [7.0230298, 15.4382], [7.35444021, 15.31949997]]]]}, "geometry_name": "geom", "properties": {"asap0_id": 80, "asap2_id": 5747, "asap0_name": "Niger", "asap2_name": "Dakoro", "w_crop": 10, "w_crop_na": "No warning with exceptional conditions", "w_crop_de": "Season is active but no relevant negative anomalies are detected and at least 25% of the active area is affected by a positive anomaly for the indicator zNDVIc", "w_crop_gr": 0, "date": "2026-08-21"}}, {"type": "Feature", "id": "warning_gaul2_crop.5749", "geometry": {"type": "MultiPolygon", "coordinates": [[[[3.10932994, 13.60739994], [3.08400011, 13.52690029], [2.99534011, 13.41020012], [2.97212005, 13.18490028], [2.98689008, 13.12650013], [2.97001004, 12.98770046], [2.9932301, 12.94750023], [2.95945001, 12.89519978], [2.99111009, 12.8810997], [2.95734, 12.71010017], [2.99745011, 12.67790031], [2.97001004, 12.66979981], [2.96789002, 12.55109978], [2.99358202, 12.27661753], [2.963056, 12.2875], [2.84334993, 12.41429997], [2.7462399, 12.4605999], [2.7441299, 12.53499985], [2.72302008, 12.57129955], [2.70614004, 12.57330036], [2.68291998, 12.50889969], [2.67446995, 12.52900028], [2.64281011, 12.53100014], [2.64703012, 12.56919956], [2.61959004, 12.59539986], [2.63014007, 12.68589973], [2.58791995, 12.80060005], [2.62170005, 12.87909985], [2.69769001, 12.91129971], [2.69980001, 12.94750023], [2.53515005, 12.97560024], [2.46971011, 13.1164999], [2.47182012, 13.17080021], [2.50559998, 13.19699955], [2.58369994, 13.18290043], [2.65969992, 13.2191], [2.65969992, 13.2493], [2.69136, 13.26539993], [2.75679994, 13.27140045], [2.82856989, 13.25329971], [2.8327899, 13.33780003], [2.86234999, 13.40820026], [2.84123993, 13.4545002], [2.84967995, 13.54899979], [2.9214499, 13.52690029], [2.9235599, 13.56110001], [2.96578002, 13.61950016], [3.10932994, 13.60739994]]]]}, "geometry_name": "geom", "properties": {"asap0_id": 80, "asap2_id": 5749, "asap0_name": "Niger", "asap2_name": "Birni N'gaoure", "w_crop": 14, "w_crop_na": "Warning level 1+ with exceptional conditions", "w_crop_de": "At least 25% of the active area is affected by an anomaly for the indicator WSI and at least 25% by SPI 3 and at least 25% of the active area is affected by a positive anomaly for the indicator zNDVIc", "w_crop_gr": 1, "date": "2026-08-21"}}, {"type": "Feature", "id": "warning_gaul2_crop.5750", "geometry": {"type": "MultiPolygon", "coordinates": [[[[3.73205996, 13.29150009], [3.76372004, 13.29150009], [3.76583004, 13.25730038], [3.71516991, 13.25529957], [3.7130599, 13.10039997], [3.6222899, 12.94139957], [3.52096009, 12.84689999], [3.55473995, 12.76239967], [3.52096009, 12.64770031], [3.41330004, 12.64770031], [3.38374996, 12.62959957], [3.40908003, 12.49479961], [3.39642, 12.40429974], [3.37741995, 12.39820004], [3.28875995, 12.27750015], [3.29930997, 12.21920013], [3.28030992, 12.13469982], [3.17522519, 12.10699681], [3.127222, 12.140278], [3.125, 12.1575], [3.071944, 12.183611], [2.99358202, 12.27661753], [2.96789002, 12.55109978], [2.97001004, 12.66979981], [2.99745011, 12.67790031], [2.95734, 12.71010017], [2.97212005, 12.81270027], [2.98900008, 12.83080006], [2.99111009, 12.8810997], [2.95945001, 12.89519978], [2.9932301, 12.94750023], [2.97001004, 12.98770046], [2.99534011, 13.41020012], [3.10299993, 13.2493], [3.24232006, 13.31359959], [3.31198001, 13.53499985], [3.40275002, 13.59930039], [3.5230701, 13.47659969], [3.47240996, 13.31159973], [3.73205996, 13.29150009]]]]}, "geometry_name": "geom", "properties": {"asap0_id": 80, "asap2_id": 5750, "asap0_name": "Niger", "asap2_name": "Dosso", "w_crop": 14, "w_crop_na": "Warning level 1+ with exceptional conditions", "w_crop_de": "At least 25% of the active area is affected by an anomaly for the indicator WSI and at least 25% by SPI 3 and at least 25% of the active area is affected by a positive anomaly for the indicator zNDVIc", "w_crop_gr": 1, "date": "2026-08-21"}}, {"type": "Feature", "id": "warning_gaul2_crop.5751", "geometry": {"type": "MultiPolygon", "coordinates": [[[[5.7247901, 14.18080044], [5.72901011, 14.02589989], [5.74168015, 14.0078001], [5.73658735, 13.81777976], [5.52459065, 13.90102548], [5.35441566, 13.83810914], [5.28058976, 13.74036781], [5.0806013, 13.74729982], [5.00019, 13.732396], [4.90952, 13.74861], [4.87076, 13.78248], [4.59700925, 13.7307043], [4.57221985, 13.8448], [4.50889015, 13.95750046], [4.46456003, 14.00570011], [4.44555998, 14.11240006], [4.92051983, 14.05809975], [5.00707007, 14.0802002], [5.08728981, 14.13049984], [5.25615978, 14.01980019], [5.38282013, 14.16069984], [5.68256998, 14.26329994], [5.70368004, 14.19079971], [5.7247901, 14.18080044]]]]}, "geometry_name": "geom", "properties": {"asap0_id": 80, "asap2_id": 5751, "asap0_name": "Niger", "asap2_name": "Birni N'konni", "w_crop": 14, "w_crop_na": "Warning level 1+ with exceptional conditions", "w_crop_de": "At least 25% of the active area is affected by an anomaly for the indicator WSI and at least 25% by SPI 3 and at least 25% of the active area is affected by a positive anomaly for the indicator zNDVIc", "w_crop_gr": 1, "date": "2026-08-21"}}, {"type": "Feature", "id": "warning_gaul2_crop.5752", "geometry": {"type": "MultiPolygon", "coordinates": [[[[3.83892525, 12.67194998], [3.65747054, 12.51995395], [3.65801143, 12.25167051], [3.63691656, 12.12978906], [3.67542875, 11.99983432], [3.61767, 11.91689], [3.62673, 11.83937], [3.66586, 11.81047], [3.6792, 11.75845], [3.60507, 11.69697], [3.556389, 11.724167], [3.564722, 11.7725], [3.522778, 11.787778], [3.521111, 11.814722], [3.481389, 11.861389], [3.383611, 11.886389], [3.321389, 11.881667], [3.259444, 11.99], [3.270278, 12.014722], [3.17522519, 12.10699681], [3.28030992, 12.13469982], [3.29930997, 12.21920013], [3.28875995, 12.27750015], [3.37741995, 12.39820004], [3.39642, 12.40429974], [3.40908003, 12.49479961], [3.38374996, 12.62959957], [3.41330004, 12.64770031], [3.52096009, 12.64770031], [3.55473995, 12.76239967], [3.52096009, 12.84689999], [3.6222899, 12.94139957], [3.71516991, 12.84889984], [3.74471998, 12.7723999], [3.83892525, 12.67194998]]]]}, "geometry_name": "geom", "properties": {"asap0_id": 80, "asap2_id": 5752, "asap0_name": "Niger", "asap2_name": "Gaya", "w_crop": 4, "w_crop_na": "Warning level 1+", "w_crop_de": "At least 25% of the active area is affected by an anomaly for the indicator WSI and at least 25% by SPI 3", "w_crop_gr": 1, "date": "2026-08-21"}}, {"type": "Feature", "id": "warning_gaul2_crop.5753", "geometry": {"type": "MultiPolygon", "coordinates": [[[[3.73205996, 13.29150009], [3.47240996, 13.31159973], [3.5230701, 13.47659969], [3.40275002, 13.59930039], [3.31198001, 13.53499985], [3.24232006, 13.31359959], [3.10299993, 13.2493], [2.99534011, 13.41020012], [3.08400011, 13.52690029], [3.13044, 13.74020004], [3.16421008, 13.81060028], [3.32676005, 13.74419975], [3.48930001, 13.80860043], [3.66451001, 13.95950031], [3.74682999, 13.73820019], [3.77005005, 13.74020004], [3.77005005, 13.59930039], [3.74895001, 13.57120037], [3.72571993, 13.57120037], [3.72783995, 13.55309963], [3.90515995, 13.54100037], [3.87138009, 13.47259998], [3.82493997, 13.47259998], [3.82493997, 13.41829968], [3.8734901, 13.3739996], [3.86294007, 13.35589981], [3.7890501, 13.32369995], [3.7890501, 13.31159973], [3.73205996, 13.30959988], [3.73205996, 13.29150009]]]]}, "geometry_name": "geom", "properties": {"asap0_id": 80, "asap2_id": 5753, "asap0_name": "Niger", "asap2_name": "Loga", "w_crop": 14, "w_crop_na": "Warning level 1+ with exceptional conditions", "w_crop_de": "At least 25% of the active area is affected by an anomaly for the indicator WSI and at least 25% by SPI 3 and at least 25% of the active area is affected by a positive anomaly for the indicator zNDVIc", "w_crop_gr": 1, "date": "2026-08-21"}}, {"type": "Feature", "id": "warning_gaul2_crop.5754", "geometry": {"type": "MultiPolygon", "coordinates": [[[[7.74074984, 13.7361002], [7.81463003, 13.6637001], [7.84841013, 13.57919979], [7.87163019, 13.5571003], [7.95817995, 13.52490044], [8.01095009, 13.57719994], [8.0489502, 13.52690029], [8.15237999, 13.50279999], [8.1798296, 13.48060036], [8.1903801, 13.38409996], [8.13337994, 13.34179974], [8.10667993, 13.28932002], [7.8155, 13.33866], [7.61329408, 13.21818721], [7.57608986, 13.26340008], [7.56975985, 13.33380032], [7.5528698, 13.3519001], [7.50010014, 13.36190033], [7.44098997, 13.34179974], [7.4156599, 13.3519001], [7.39032984, 13.40820026], [7.40088987, 13.45849991], [7.42621994, 13.52490044], [7.4874301, 13.59130001], [7.48532009, 13.65970039], [7.44733, 13.70600033], [7.54231978, 13.70189953], [7.67742014, 13.75220013], [7.74074984, 13.7361002]]]]}, "geometry_name": "geom", "properties": {"asap0_id": 80, "asap2_id": 5754, "asap0_name": "Niger", "asap2_name": "Aguie", "w_crop": 12, "w_crop_na": "Warning level 1 with exceptional conditions", "w_crop_de": "At least 25% of the active area is affected by an anomaly for the indicator WSI and at least 25% of the active area is affected by a positive anomaly for the indicator zNDVIc", "w_crop_gr": 1, "date": "2026-08-21"}}, {"type": "Feature", "id": "warning_gaul2_crop.5755", "geometry": {"type": "MultiPolygon", "coordinates": [[[[7.40932989, 13.75829983], [7.48532009, 13.65970039], [7.4874301, 13.59130001], [7.45155001, 13.55109978], [7.30800009, 13.51889992], [7.18556976, 13.54300022], [7.1328001, 13.53499985], [7.10113001, 13.50879955], [7.03568983, 13.51679993], [6.98081017, 13.48670006], [6.90902996, 13.47259998], [6.90480995, 13.39210033], [6.87525988, 13.38210011], [6.90269995, 13.35789967], [6.85414982, 13.3760004], [6.79082012, 13.34379959], [6.76549006, 13.27740002], [6.80138016, 13.21510029], [6.78461044, 13.17360406], [6.67783, 13.35546], [6.52603611, 13.50247591], [6.49859466, 13.55499861], [6.41437617, 13.63935768], [6.285808, 13.70677989], [6.27786017, 13.73410034], [6.29897022, 13.77639961], [6.37073994, 13.80459976], [6.34751988, 13.84879971], [6.41718006, 13.80459976], [6.47207022, 13.84879971], [6.61139011, 13.80860043], [6.74438, 13.89109993], [6.89636993, 13.90719986], [7.04413986, 13.85890007], [7.07579994, 13.80459976], [7.13491011, 13.80249977], [7.21722984, 13.76229954], [7.40932989, 13.75829983]]]]}, "geometry_name": "geom", "properties": {"asap0_id": 80, "asap2_id": 5755, "asap0_name": "Niger", "asap2_name": "Guidan Roumji", "w_crop": 12, "w_crop_na": "Warning level 1 with exceptional conditions", "w_crop_de": "At least 25% of the active area is affected by an anomaly for the indicator WSI and at least 25% of the active area is affected by a positive anomaly for the indicator zNDVIc", "w_crop_gr": 1, "date": "2026-08-21"}}, {"type": "Feature", "id": "warning_gaul2_crop.5757", "geometry": {"type": "MultiPolygon", "coordinates": [[[[7.61329408, 13.21818721], [7.40072, 13.10179], [7.22789, 13.11093], [7.13639, 13.02316], [6.93409, 12.98861], [6.79199, 13.15861], [6.80138016, 13.21510029], [6.76549006, 13.27740002], [6.79927015, 13.3519001], [6.85414982, 13.3760004], [6.90269995, 13.35789967], [6.87525988, 13.38210011], [6.90480995, 13.39210033], [6.90902996, 13.47259998], [6.98081017, 13.48670006], [7.03568983, 13.51679993], [7.10113001, 13.50879955], [7.1328001, 13.53499985], [7.18556976, 13.54300022], [7.30800009, 13.51889992], [7.44521999, 13.55109978], [7.39032984, 13.42230034], [7.40088987, 13.3760004], [7.43465996, 13.34179974], [7.50010014, 13.36190033], [7.56131983, 13.3458004], [7.57608986, 13.26340008], [7.61329408, 13.21818721]]]]}, "geometry_name": "geom", "properties": {"asap0_id": 80, "asap2_id": 5757, "asap0_name": "Niger", "asap2_name": "Madarounfa", "w_crop": 12, "w_crop_na": "Warning level 1 with exceptional conditions", "w_crop_de": "At least 25% of the active area is affected by an anomaly for the indicator WSI and at least 25% of the active area is affected by a positive anomaly for the indicator zNDVIc", "w_crop_gr": 1, "date": "2026-08-21"}}, {"type": "Feature", "id": "warning_gaul2_crop.5759", "geometry": {"type": "MultiPolygon", "coordinates": [[[[8.51546955, 14.1566], [8.51336002, 14.07009983], [8.54290962, 14.01179981], [8.51758003, 13.87699986], [8.33603954, 13.79650021], [8.22416019, 13.71800041], [8.22416019, 13.67179966], [8.35081005, 13.58320046], [8.31914997, 13.53899956], [8.34659004, 13.37199974], [8.31914997, 13.3519001], [8.30648041, 13.28950024], [8.255922, 13.20755773], [8.21173, 13.21899], [8.10667993, 13.28932002], [8.13337994, 13.34179974], [8.19248962, 13.39009953], [8.17138004, 13.49069977], [8.0489502, 13.52690029], [8.01095009, 13.57719994], [7.95817995, 13.52490044], [7.87163019, 13.5571003], [7.84841013, 13.57919979], [7.81463003, 13.6637001], [7.74074984, 13.7361002], [7.88640022, 13.77840042], [7.99617004, 13.85890007], [8.05949974, 13.92930031], [8.05739021, 13.9715004], [8.08905983, 14.0078001], [8.04049969, 14.00979996], [8.07639027, 14.06410027], [7.95394993, 14.03789997], [8.05949974, 14.30150032], [8.07217026, 14.44839954], [8.16504955, 14.42420006], [8.18826962, 14.39400005], [8.26214981, 14.38399983], [8.38881016, 14.2652998], [8.42047024, 14.19489956], [8.51546955, 14.1566]]]]}, "geometry_name": "geom", "properties": {"asap0_id": 80, "asap2_id": 5759, "asap0_name": "Niger", "asap2_name": "Tessaoua", "w_crop": 12, "w_crop_na": "Warning level 1 with exceptional conditions", "w_crop_de": "At least 25% of the active area is affected by an anomaly for the indicator WSI and at least 25% of the active area is affected by a positive anomaly for the indicator zNDVIc", "w_crop_gr": 1, "date": "2026-08-21"}}, {"type": "Feature", "id": "warning_gaul2_crop.5760", "geometry": {"type": "MultiPolygon", "coordinates": [[[[6.48261976, 14.36390019], [6.40030003, 14.28139973], [6.32218981, 14.25520039], [6.25042009, 14.24919987], [6.19130993, 14.26329994], [6.13431978, 14.24720001], [6.06888008, 14.26930046], [6.01187992, 14.2652998], [5.7247901, 14.19279957], [5.7247901, 14.18080044], [5.70368004, 14.19079971], [5.6487999, 14.38599968], [5.67623997, 14.44629955], [5.67412996, 14.48460007], [5.69735003, 14.51679993], [5.97176981, 14.55700016], [5.98654985, 14.63549995], [6.10476017, 14.63749981], [6.09843016, 14.67570019], [6.12165022, 14.69979954], [6.18497992, 14.70790005], [6.26520014, 14.64550018], [6.47629023, 14.62539959], [6.52061987, 14.81649971], [6.55439997, 14.81849957], [6.47629023, 14.49059963], [6.48261976, 14.36390019]]]]}, "geometry_name": "geom", "properties": {"asap0_id": 80, "asap2_id": 5760, "asap0_name": "Niger", "asap2_name": "Bouza", "w_crop": 4, "w_crop_na": "Warning level 1+", "w_crop_de": "At least 25% of the active area is affected by an anomaly for the indicator WSI and at least 25% by SPI 3", "w_crop_gr": 1, "date": "2026-08-21"}}, {"type": "Feature", "id": "warning_gaul2_crop.5761", "geometry": {"type": "MultiPolygon", "coordinates": [[[[5.36382008, 14.54090023], [5.55170012, 14.5007], [5.69735003, 14.51679993], [5.67412996, 14.48460007], [5.67623997, 14.44629955], [5.6487999, 14.38599968], [5.68256998, 14.26329994], [5.37226009, 14.1566], [5.25615978, 14.01980019], [5.08728981, 14.13049984], [5.00707007, 14.0802002], [4.92051983, 14.05809975], [4.44555998, 14.11240006], [4.41177988, 14.2894001], [4.43288994, 14.43830013], [4.34212017, 14.60529995], [4.25556994, 14.63549995], [4.20701981, 14.68780041], [4.48356009, 14.69379997], [4.56587982, 14.58110046], [4.85086012, 14.4744997], [4.9057498, 14.49870014], [5.00707007, 14.47249985], [5.1231699, 14.52680016], [5.19494009, 14.53890038], [5.26882982, 14.53079987], [5.3004899, 14.55300045], [5.36382008, 14.54090023]]]]}, "geometry_name": "geom", "properties": {"asap0_id": 80, "asap2_id": 5761, "asap0_name": "Niger", "asap2_name": "Illela", "w_crop": 14, "w_crop_na": "Warning level 1+ with exceptional conditions", "w_crop_de": "At least 25% of the active area is affected by an anomaly for the indicator WSI and at least 25% by SPI 3 and at least 25% of the active area is affected by a positive anomaly for the indicator zNDVIc", "w_crop_gr": 1, "date": "2026-08-21"}}, {"type": "Feature", "id": "warning_gaul2_crop.5762", "geometry": {"type": "MultiPolygon", "coordinates": [[[[6.55650997, 15.00160027], [6.55861998, 14.82859993], [6.52061987, 14.81649971], [6.47629023, 14.62539959], [6.26520014, 14.64550018], [6.17230988, 14.70790005], [6.1111002, 14.69379997], [6.10054016, 14.63549995], [6.03720999, 14.64550018], [5.98654985, 14.63549995], [5.97176981, 14.55700016], [5.55803013, 14.5007], [5.36382008, 14.54090023], [5.37860012, 14.58320046], [5.41659021, 14.62339973], [5.51159, 14.63949966], [5.55803013, 14.66969967], [5.57914019, 14.72799969], [5.60657978, 14.75220013], [5.59180021, 14.82260037], [5.64035988, 14.84669972], [5.66568995, 14.90299988], [5.63190985, 15.08609963], [5.77967978, 15.11030006], [5.84089994, 15.04389954], [6.08154011, 15.00570011], [6.55650997, 15.00160027]]]]}, "geometry_name": "geom", "properties": {"asap0_id": 80, "asap2_id": 5762, "asap0_name": "Niger", "asap2_name": "Keita", "w_crop": 14, "w_crop_na": "Warning level 1+ with exceptional conditions", "w_crop_de": "At least 25% of the active area is affected by an anomaly for the indicator WSI and at least 25% by SPI 3 and at least 25% of the active area is affected by a positive anomaly for the indicator zNDVIc", "w_crop_gr": 1, "date": "2026-08-21"}}, {"type": "Feature", "id": "warning_gaul2_crop.5763", "geometry": {"type": "MultiPolygon", "coordinates": [[[[6.34751988, 13.84879971], [6.37073994, 13.80459976], [6.29897022, 13.77639961], [6.27786017, 13.73410034], [6.285808, 13.70677989], [6.21659423, 13.71414112], [6.14060049, 13.68500133], [6.07682952, 13.71706395], [5.73658735, 13.81777976], [5.74168015, 14.0078001], [5.72901011, 14.02589989], [5.7247901, 14.19279957], [6.04777002, 14.26930046], [6.13431978, 14.24720001], [6.19130993, 14.26329994], [6.25042009, 14.24919987], [6.32218981, 14.25520039], [6.40030003, 14.28139973], [6.48261976, 14.36390019], [6.49739981, 14.30550003], [6.53750992, 14.27330017], [6.54172993, 14.14249992], [6.52061987, 14.1324997], [6.52483988, 14.04599953], [6.4657402, 14.01379967], [6.41718006, 14.0078001], [6.32851982, 13.92730045], [6.33063984, 13.85079956], [6.34751988, 13.84879971]]]]}, "geometry_name": "geom", "properties": {"asap0_id": 80, "asap2_id": 5763, "asap0_name": "Niger", "asap2_name": "Madaoua", "w_crop": 12, "w_crop_na": "Warning level 1 with exceptional conditions", "w_crop_de": "At least 25% of the active area is affected by an anomaly for the indicator WSI and at least 25% of the active area is affected by a positive anomaly for the indicator zNDVIc", "w_crop_gr": 1, "date": "2026-08-21"}}, {"type": "Feature", "id": "warning_gaul2_crop.5764", "geometry": {"type": "MultiPolygon", "coordinates": [[[[5.63190985, 15.08609963], [5.66568995, 14.90299988], [5.64035988, 14.84669972], [5.59180021, 14.82260037], [5.60657978, 14.75220013], [5.57914019, 14.72799969], [5.55803013, 14.66969967], [5.51159, 14.63949966], [5.41659021, 14.62339973], [5.37860012, 14.58320046], [5.36382008, 14.54090023], [5.3004899, 14.55300045], [5.26882982, 14.53079987], [5.19494009, 14.53890038], [5.1231699, 14.52680016], [5.00707007, 14.47249985], [4.9057498, 14.49870014], [4.85086012, 14.4744997], [4.56587982, 14.58110046], [4.48356009, 14.69379997], [4.20701981, 14.68780041], [4.12047005, 14.77630043], [4.12892008, 15.01169968], [4.45188999, 15.00769997], [4.77275991, 15.14449978], [4.95851994, 15.10219955], [5.12738991, 15.11629963], [5.33004999, 15.1505003], [5.47780991, 15.20680046], [5.60868979, 15.15859985], [5.63190985, 15.08609963]]]]}, "geometry_name": "geom", "properties": {"asap0_id": 80, "asap2_id": 5764, "asap0_name": "Niger", "asap2_name": "Tahoua", "w_crop": 14, "w_crop_na": "Warning level 1+ with exceptional conditions", "w_crop_de": "At least 25% of the active area is affected by an anomaly for the indicator WSI and at least 25% by SPI 3 and at least 25% of the active area is affected by a positive anomaly for the indicator zNDVIc", "w_crop_gr": 1, "date": "2026-08-21"}}, {"type": "Feature", "id": "warning_gaul2_crop.5766", "geometry": {"type": "MultiPolygon", "coordinates": [[[[6.72537994, 15.42819977], [6.63039017, 15.2592001], [6.55650997, 15.00160027], [6.08154011, 15.00570011], [5.84089994, 15.04389954], [5.77967978, 15.11030006], [5.63190985, 15.08609963], [5.60868979, 15.15859985], [5.47780991, 15.20680046], [5.33004999, 15.1505003], [5.12738991, 15.11629963], [4.95851994, 15.10219955], [4.77275991, 15.14449978], [4.45188999, 15.00769997], [4.12892008, 15.01169968], [4.10358, 15.16860008], [3.87214252, 15.69188288], [3.9057, 15.77408], [3.92957, 15.90952], [4.0044, 15.98598], [3.98774, 16.06065], [4.07647, 16.32042], [4.07676, 16.91231], [4.2412, 16.9877], [4.24343, 18.67082983], [4.86986017, 18.67939949], [4.84453011, 18.5788002], [4.78119993, 18.49230003], [4.76008987, 18.42790031], [4.81709003, 18.25079918], [4.81709003, 18.13010025], [4.72842979, 18.0034008], [4.7326498, 17.94910049], [4.87619019, 17.92090035], [4.88886023, 17.82029915], [5.09150982, 17.70159912], [5.14216995, 17.6352005], [5.22028017, 17.47220039], [5.60657978, 17.27099991], [6.01609993, 16.96730042], [6.10476017, 16.87269974], [6.34962988, 16.35160065], [6.42563009, 16.28319931], [6.64094019, 16.19269943], [6.58395004, 15.89890003], [6.72537994, 15.42819977]]]]}, "geometry_name": "geom", "properties": {"asap0_id": 80, "asap2_id": 5766, "asap0_name": "Niger", "asap2_name": "Tchin Tabaradene", "w_crop": 14, "w_crop_na": "Warning level 1+ with exceptional conditions", "w_crop_de": "At least 25% of the active area is affected by an anomaly for the indicator WSI and at least 25% by SPI 3 and at least 25% of the active area is affected by a positive anomaly for the indicator zNDVIc", "w_crop_gr": 1, "date": "2026-08-21"}}, {"type": "Feature", "id": "warning_gaul2_crop.5767", "geometry": {"type": "MultiPolygon", "coordinates": [[[[4.01914978, 15.35770035], [4.10358, 15.16860008], [4.12892008, 15.01169968], [4.12047005, 14.77630043], [4.25556994, 14.63549995], [4.25134993, 14.52880001], [4.16480017, 14.4946003], [4.16480017, 14.43830013], [3.95160008, 14.38799954], [3.8734901, 14.33370018], [3.76583004, 14.18879986], [3.74049997, 14.03590012], [3.72149992, 14.0078001], [3.50619006, 13.82059956], [3.32676005, 13.74419975], [3.16421008, 13.81060028], [3.13044, 13.74020004], [3.10932994, 13.60739994], [2.96578002, 13.61950016], [2.9235599, 13.56110001], [2.9214499, 13.52690029], [2.87712002, 13.5309], [2.80324006, 13.59930039], [2.82435012, 13.65970039], [2.68713999, 13.66979981], [2.6407001, 13.73009968], [2.61114001, 13.82470036], [2.53937006, 13.875], [2.56048012, 13.91119957], [2.53304005, 13.97360039], [2.54148006, 14.01179981], [2.56258988, 14.02589989], [2.56048012, 14.07619953], [2.64492011, 14.11639977], [2.75468993, 14.10229969], [2.76523995, 14.11240006], [2.73147011, 14.15859985], [2.79902005, 14.16670036], [2.75468993, 14.25119972], [2.8138001, 14.40209961], [2.78635001, 14.49260044], [2.80535007, 14.66559982], [2.78635001, 14.7361002], [2.78424001, 14.87689972], [2.87079001, 14.9151001], [3.06289005, 15.05799961], [3.00659194, 15.34593992], [3.52751, 15.34149], [3.53817, 15.48831], [3.60766, 15.52616], [3.70612, 15.63936], [3.82228, 15.66343], [3.87214303, 15.69188309], [4.01914978, 15.35770035]]]]}, "geometry_name": "geom", "properties": {"asap0_id": 80, "asap2_id": 5767, "asap0_name": "Niger", "asap2_name": "Filingue", "w_crop": 14, "w_crop_na": "Warning level 1+ with exceptional conditions", "w_crop_de": "At least 25% of the active area is affected by an anomaly for the indicator WSI and at least 25% by SPI 3 and at least 25% of the active area is affected by a positive anomaly for the indicator zNDVIc", "w_crop_gr": 1, "date": "2026-08-21"}}, {"type": "Feature", "id": "warning_gaul2_crop.5769", "geometry": {"type": "MultiPolygon", "coordinates": [[[[3.00659194, 15.34593992], [3.06289005, 15.05799961], [2.87079001, 14.9151001], [2.78424001, 14.87689972], [2.78635001, 14.7361002], [2.80535007, 14.66559982], [2.78635001, 14.49260044], [2.8138001, 14.40209961], [2.75468993, 14.25720024], [2.79902005, 14.16670036], [2.73147011, 14.15859985], [2.76523995, 14.11240006], [2.70825005, 14.10229969], [2.64492011, 14.11639977], [2.56048012, 14.07619953], [2.56258988, 14.02589989], [2.54148006, 14.01179981], [2.53304005, 13.97360039], [2.56048012, 13.91119957], [2.52882004, 13.87090015], [2.24172998, 13.85890007], [2.18262005, 13.83880043], [2.06229997, 13.8991003], [2.00741005, 13.86089993], [1.97363997, 13.85890007], [1.92719996, 13.88099957], [1.85965002, 13.87699986], [1.89130998, 13.91119957], [1.87231004, 14.04800034], [1.78154004, 14.07409954], [1.76253998, 14.10029984], [1.72031999, 14.22299957], [1.68233001, 14.42420006], [1.56200004, 14.64150047], [1.50079, 14.7098999], [1.49866998, 15.05389977], [1.51742801, 15.27925986], [2.62879, 15.36712], [3.00659194, 15.34593992]]]]}, "geometry_name": "geom", "properties": {"asap0_id": 80, "asap2_id": 5769, "asap0_name": "Niger", "asap2_name": "Ouallam", "w_crop": 12, "w_crop_na": "Warning level 1 with exceptional conditions", "w_crop_de": "At least 25% of the active area is affected by an anomaly for the indicator WSI and at least 25% of the active area is affected by a positive anomaly for the indicator zNDVIc", "w_crop_gr": 1, "date": "2026-08-21"}}, {"type": "Feature", "id": "warning_gaul2_crop.5770", "geometry": {"type": "MultiPolygon", "coordinates": [[[[11.99849987, 15.58710003], [12.00279999, 14.60929966], [11.92459965, 14.57110024], [11.9119997, 14.52880001], [11.93099976, 14.45040035], [11.99849987, 14.42420006], [11.87819958, 14.37189961], [11.79800034, 14.37189961], [11.54889965, 14.18879986], [11.33780003, 14.15260029], [11.25549984, 14.1868], [11.20899963, 14.1566], [11.08240032, 14.07209969], [10.99790001, 13.97560024], [10.83539963, 13.83469963], [10.82269955, 13.71399975], [10.61369991, 13.51889992], [10.66931035, 13.35690341], [10.46642, 13.2825], [10.20709, 13.26782], [9.99653, 13.16327], [9.87268248, 13.03586215], [9.79259014, 13.14669991], [9.71236992, 13.32369995], [9.6363802, 13.40820026], [9.6026001, 13.63150024], [9.69338036, 13.66769981], [9.71026039, 13.89309979], [9.73136997, 13.97560024], [9.74615002, 13.99969959], [9.95724011, 14.10229969], [9.93824959, 14.11439991], [9.96568966, 14.22700024], [9.82425022, 14.30350018], [9.77359009, 14.3980999], [9.73558998, 14.41619968], [9.65326977, 14.35379982], [9.60894013, 14.38000011], [9.50761032, 14.37189961], [9.37250996, 14.47049999], [9.36196041, 14.50870037], [9.36618042, 14.71590042], [9.52239037, 14.80650044], [9.63004971, 14.93929958], [9.62370968, 16.1685009], [11.04440022, 17.09799957], [11.59959984, 17.3696003], [11.99429989, 17.49440002], [11.99849987, 15.58710003]]]]}, "geometry_name": "geom", "properties": {"asap0_id": 80, "asap2_id": 5770, "asap0_name": "Niger", "asap2_name": "Goure", "w_crop": 0, "w_crop_na": "No warning", "w_crop_de": "Season is active but no relevant anomalies are detected", "w_crop_gr": 0, "date": "2026-08-21"}}, {"type": "Feature", "id": "warning_gaul2_crop.5772", "geometry": {"type": "MultiPolygon", "coordinates": [[[[9.87268248, 13.03586215], [9.65024, 12.80361], [8.96979, 12.83305], [8.64848, 12.93856], [8.62129, 12.99022], [8.56482, 13.03827], [8.48642, 13.06973], [8.41563, 13.05485], [8.31124302, 13.15454612], [8.33603954, 13.17889977], [8.45003033, 13.17679977], [8.52180004, 13.20499992], [8.63156986, 13.18690014], [8.68855953, 13.28750038], [8.80043984, 13.28349972], [8.95454025, 13.24520016], [9.0031004, 13.29349995], [9.12975025, 13.28950024], [9.19941044, 13.31359959], [9.25218964, 13.38609982], [9.27330017, 13.49670029], [9.35772991, 13.59529972], [9.4991703, 13.60130024], [9.6026001, 13.63150024], [9.6363802, 13.40820026], [9.71236992, 13.32369995], [9.79259014, 13.14669991], [9.87268248, 13.03586215]]]]}, "geometry_name": "geom", "properties": {"asap0_id": 80, "asap2_id": 5772, "asap0_name": "Niger", "asap2_name": "Magaria", "w_crop": 12, "w_crop_na": "Warning level 1 with exceptional conditions", "w_crop_de": "At least 25% of the active area is affected by an anomaly for the indicator WSI and at least 25% of the active area is affected by a positive anomaly for the indicator zNDVIc", "w_crop_gr": 1, "date": "2026-08-21"}}, {"type": "Feature", "id": "warning_gaul2_crop.5774", "geometry": {"type": "MultiPolygon", "coordinates": [[[[8.76455975, 13.28349972], [8.68855953, 13.28750038], [8.63156986, 13.18690014], [8.59568024, 13.18290043], [8.5450201, 13.20699978], [8.45003033, 13.17679977], [8.34447956, 13.18089962], [8.31124302, 13.15454612], [8.28753, 13.17168], [8.255922, 13.20755773], [8.30648041, 13.28950024], [8.31914997, 13.3519001], [8.34659004, 13.37199974], [8.31914997, 13.53899956], [8.35081005, 13.58320046], [8.3022604, 13.62150002], [8.41203022, 13.65159988], [8.51336002, 13.64560032], [8.60202026, 13.67179966], [8.65690041, 13.6637001], [8.67378998, 13.49670029], [8.69911957, 13.49069977], [8.74133968, 13.50879955], [8.77721977, 13.43029976], [8.76245022, 13.37199974], [8.77933979, 13.32369995], [8.76455975, 13.28349972]]]]}, "geometry_name": "geom", "properties": {"asap0_id": 80, "asap2_id": 5774, "asap0_name": "Niger", "asap2_name": "Matamey", "w_crop": 14, "w_crop_na": "Warning level 1+ with exceptional conditions", "w_crop_de": "At least 25% of the active area is affected by an anomaly for the indicator WSI and at least 25% by SPI 3 and at least 25% of the active area is affected by a positive anomaly for the indicator zNDVIc", "w_crop_gr": 1, "date": "2026-08-21"}}, {"type": "Feature", "id": "warning_gaul2_crop.5775", "geometry": {"type": "MultiPolygon", "coordinates": [[[[9.36196041, 14.50870037], [9.29862976, 14.43029976], [9.07909012, 14.39599991], [9.03687, 14.35579968], [9.01154041, 14.28740025], [8.93976975, 14.28139973], [8.93342972, 14.21700001], [8.65478993, 14.11240006], [8.60202026, 14.18280029], [8.60202026, 14.21700001], [8.51758003, 14.21700001], [8.51546955, 14.1566], [8.42469978, 14.19279957], [8.38881016, 14.2652998], [8.26214981, 14.38399983], [8.18826962, 14.39400005], [8.15237999, 14.42819977], [8.01095009, 14.45440006], [7.99195004, 14.51480007], [7.95183992, 14.51679993], [7.84418011, 14.42420006], [7.77874994, 14.42020035], [7.70697022, 14.46850014], [7.71541977, 14.63749981], [7.59719992, 14.69779968], [7.53809977, 14.7098999], [7.5528698, 14.77229977], [7.51488018, 14.81649971], [7.49166012, 15.00570011], [7.4114399, 15.14449978], [7.42199993, 15.28730011], [7.35444021, 15.31949997], [7.50432015, 15.5710001], [7.5528698, 15.55290031], [7.60142994, 15.56089973], [7.98140001, 15.50660038], [8.15660954, 15.55090046], [8.30858994, 15.54479981], [8.43103027, 15.57900047], [9.02632046, 15.87080002], [9.30918026, 15.95930004], [9.62370968, 16.1685009], [9.63004971, 14.93929958], [9.52239037, 14.80650044], [9.36618042, 14.71590042], [9.36196041, 14.50870037]]]]}, "geometry_name": "geom", "properties": {"asap0_id": 80, "asap2_id": 5775, "asap0_name": "Niger", "asap2_name": "Tanout", "w_crop": 6, "w_crop_na": "Warning level 3", "w_crop_de": "At least 25% of the active area is affected by an anomaly for the indicator zNDVIc and at least 25% by WSI", "w_crop_gr": 3, "date": "2026-08-21"}}, {"type": "Feature", "id": "warning_gaul2_crop.5780", "geometry": {"type": "MultiPolygon", "coordinates": [[[[9.6026001, 13.63150024], [9.4991703, 13.60130024], [9.35772991, 13.59529972], [9.27330017, 13.49670029], [9.25218964, 13.38609982], [9.19941044, 13.31359959], [9.12975025, 13.28950024], [9.0031004, 13.29349995], [8.95454025, 13.24520016], [8.76455975, 13.28349972], [8.77933979, 13.32369995], [8.76245022, 13.37199974], [8.77721977, 13.43029976], [8.74133968, 13.50879955], [8.69911957, 13.49069977], [8.67378998, 13.49670029], [8.65690041, 13.6637001], [8.60202026, 13.67179966], [8.51336002, 13.64560032], [8.41203022, 13.65159988], [8.3022604, 13.62150002], [8.22416019, 13.67179966], [8.22416019, 13.71800041], [8.33603954, 13.79650021], [8.51758003, 13.87699986], [8.54290962, 14.01179981], [8.51336002, 14.07009983], [8.51758003, 14.21700001], [8.60202026, 14.21700001], [8.60202026, 14.18280029], [8.65478993, 14.11240006], [8.93342972, 14.21700001], [8.93976975, 14.28139973], [9.01154041, 14.28740025], [9.03687, 14.35579968], [9.07909012, 14.39599991], [9.29862976, 14.43029976], [9.36196041, 14.50870037], [9.37250996, 14.47049999], [9.50761032, 14.37189961], [9.60894013, 14.38000011], [9.65326977, 14.35379982], [9.73558998, 14.41619968], [9.77359009, 14.3980999], [9.82425022, 14.30350018], [9.96568966, 14.22700024], [9.93824959, 14.11439991], [9.95724011, 14.10229969], [9.74615002, 13.99969959], [9.73136997, 13.97560024], [9.71026039, 13.89309979], [9.69338036, 13.66769981], [9.6026001, 13.63150024]]]]}, "geometry_name": "geom", "properties": {"asap0_id": 80, "asap2_id": 5780, "asap0_name": "Niger", "asap2_name": "Miria", "w_crop": 12, "w_crop_na": "Warning level 1 with exceptional conditions", "w_crop_de": "At least 25% of the active area is affected by an anomaly for the indicator WSI and at least 25% of the active area is affected by a positive anomaly for the indicator zNDVIc", "w_crop_gr": 1, "date": "2026-08-21"}}], "totalFeatures": 35, "numberMatched": 35, "numberReturned": 35, "timeStamp": "2026-09-09T17:42:59.911Z", "crs": {"type": "name", "properties": {"name": "urn:ogc:def:crs:EPSG::4326"}}}
